{
"type": "FeatureCollection",
"name": "filtered_pois_noon_5_15",
"crs": { "type": "name", "properties": { "name": "urn:ogc:def:crs:EPSG::25832" } },
"features": [
{ "type": "Feature", "properties": { "osm_id": "node/11335642048", "name": "Dr. Dunckelmann", "category": "doctors", "tags": { "addr:city": "Heidelberg", "addr:country": "DE", "addr:housenumber": "83", "addr:postcode": "69115", "addr:street": "Rohrbacher Straße", "amenity": "doctors", "healthcare": "doctor", "healthcare:speciality": "paediatrics", "name": "Dr. Dunckelmann", "opening_hours": "Mo-Th 08:00-12:00, Mo,Tu,Th 14:30-18:00, Fr 08:00-15:30", "operator": "Robert Dunckelmann", "website": "https://www.dunckelmann.de" }, "geom_type": "node", "timeofday": "noon", "shadow_factor": 5.0, "value": 900.0, "population": 6641.0 }, "geometry": { "type": "Point", "coordinates": [ 477587.693400625721551, 5472058.265509083867073 ] } },
{ "type": "Feature", "properties": { "osm_id": "node/1029580645", "name": "Dr. Engellandt-Schnell", "category": "doctors", "tags": { "amenity": "doctors", "check_date": "2024-06-19", "check_date:opening_hours": "2024-06-19", "healthcare": "doctor", "name": "Dr. Engellandt-Schnell", "opening_hours:signed": "no" }, "geom_type": "node", "timeofday": "noon", "shadow_factor": 5.0, "value": 900.0, "population": 6641.0 }, "geometry": { "type": "Point", "coordinates": [ 478673.287049787526485, 5473350.358195478096604 ] } },
{ "type": "Feature", "properties": { "osm_id": "node/11331331000", "name": "Dr. Heemann & Prof. Dr. Ikinger", "category": "doctors", "tags": { "addr:city": "Heidelberg", "addr:housenumber": "2-4", "addr:postcode": "69115", "addr:street": "Franz-Knauff-Straße", "amenity": "doctors", "healthcare": "doctor", "healthcare:speciality": "urology", "name": "Dr. Heemann & Prof. Dr. Ikinger", "opening_hours": "Mo-Fr 08:00-13:00; Tu,Th 14:00-17:00; We 14:00-18:00" }, "geom_type": "node", "timeofday": "noon", "shadow_factor": 5.0, "value": 900.0, "population": 6641.0 }, "geometry": { "type": "Point", "coordinates": [ 477523.459843759890646, 5471918.471044354140759 ] } },
{ "type": "Feature", "properties": { "osm_id": "node/1029574233", "name": "Dr. med Hadulla", "category": "doctors", "tags": { "amenity": "doctors", "healthcare": "doctor", "name": "Dr. med Hadulla", "website": "https://www.kinderarzt-holmhadulla.com", "wheelchair": "no", "wheelchair:description": "Treppen und schmale Tür" }, "geom_type": "node", "timeofday": "noon", "shadow_factor": 5.0, "value": 900.0, "population": 6641.0 }, "geometry": { "type": "Point", "coordinates": [ 479088.112773125467356, 5473364.966622101143003 ] } },
{ "type": "Feature", "properties": { "osm_id": "node/8973914654", "name": "HNO Grüne Meile - Dr. van de Weyer & Dr. Slawik", "category": "doctors", "tags": { "addr:city": "Heidelberg", "addr:country": "DE", "addr:housenumber": "52", "addr:postcode": "69115", "addr:street": "Grüne Meile", "amenity": "doctors", "healthcare": "doctor", "healthcare:speciality": "otolaryngology", "name": "HNO Grüne Meile - Dr. van de Weyer & Dr. Slawik", "opening_hours": "Mo,Tu 08:00-13:00,14:00-18:00; We 08:00-13:00,16:00-20:00; Th 08:00-13:00; Fr 10:00-13:00,13:30-16:00", "website": "https://www.hno-gruene-meile.de" }, "geom_type": "node", "timeofday": "noon", "shadow_factor": 5.0, "value": 900.0, "population": 6641.0 }, "geometry": { "type": "Point", "coordinates": [ 475555.64297655998962, 5472508.09228837210685 ] } },
{ "type": "Feature", "properties": { "osm_id": "node/7401622622", "name": "HNO Praxis Dr. Bergmann", "category": "doctors", "tags": { "amenity": "doctors", "email": "info@hno-bergmann.com", "healthcare": "doctor", "healthcare:speciality": "otolaryngology", "name": "HNO Praxis Dr. Bergmann", "opening_hours": "Mo,Th 08:30-13:00; We 14:00-18:00", "phone": "+49 6221 352199900", "website": "https://hno-bergmann.com" }, "geom_type": "node", "timeofday": "noon", "shadow_factor": 5.0, "value": 900.0, "population": 6641.0 }, "geometry": { "type": "Point", "coordinates": [ 479072.743868785677478, 5473441.30230172816664 ] } },
{ "type": "Feature", "properties": { "osm_id": "node/11331330998", "name": "HNO Praxis Kärcher", "category": "doctors", "tags": { "addr:city": "Heidelberg", "addr:housenumber": "2-4", "addr:postcode": "69115", "addr:street": "Franz-Knauff-Straße", "amenity": "doctors", "healthcare": "doctor", "healthcare:speciality": "otolaryngology", "name": "HNO Praxis Kärcher", "opening_hours": "Mo-Fr 08:00-11:30; Mo,Tu 14:00-17:30; We 13:00-15:30; Th 16:00-17:30" }, "geom_type": "node", "timeofday": "noon", "shadow_factor": 5.0, "value": 900.0, "population": 6641.0 }, "geometry": { "type": "Point", "coordinates": [ 477526.170363381388597, 5471919.482724235393107 ] } },
{ "type": "Feature", "properties": { "osm_id": "node/12470860381", "name": "Hausarztpraxis Dr. Diemel", "category": "doctors", "tags": { "addr:city": "Heidelberg", "addr:housenumber": "79", "addr:postcode": "69124", "addr:street": "Schmitthennerstraße", "amenity": "doctors", "healthcare": "doctor", "healthcare:speciality": "general", "name": "Hausarztpraxis Dr. Diemel", "operator": "Dr. Brigitte Diemel", "phone": "06221780580", "website": "https://www.dr-diemel.de//" }, "geom_type": "node", "timeofday": "noon", "shadow_factor": 5.0, "value": 900.0, "population": 6641.0 }, "geometry": { "type": "Point", "coordinates": [ 476138.449343293090351, 5469974.273052776232362 ] } },
{ "type": "Feature", "properties": { "osm_id": "node/11091825763", "name": "Hausarztpraxis Dr. Xiaodong Wang", "category": "doctors", "tags": { "addr:city": "Heidelberg", "addr:housenumber": "2-4", "addr:postcode": "69115", "addr:street": "Franz-Knauff-Straße", "amenity": "doctors", "healthcare": "doctor", "healthcare:speciality": "general", "name": "Hausarztpraxis Dr. Xiaodong Wang", "opening_hours": "Mo 08:30-12:00,15:00-18:00; Tu,Th 08:30-15:30; We,Fr 08:30-12:00" }, "geom_type": "node", "timeofday": "noon", "shadow_factor": 5.0, "value": 900.0, "population": 6641.0 }, "geometry": { "type": "Point", "coordinates": [ 477509.408399946580175, 5471920.919000513851643 ] } },
{ "type": "Feature", "properties": { "osm_id": "node/8973914653", "name": "Haut- und Laserzentrum Heidelberg - Durani", "category": "doctors", "tags": { "addr:city": "Heidelberg", "addr:country": "DE", "addr:housenumber": "56", "addr:postcode": "69115", "addr:street": "Grüne Meile", "amenity": "doctors", "healthcare": "doctor", "healthcare:speciality": "dermatology", "name": "Haut- und Laserzentrum Heidelberg - Durani", "opening_hours": "Mo-Fr 09:00-13:00", "phone": "+49 6221 434130", "website": "https://www.durani-facharzt.de" }, "geom_type": "node", "timeofday": "noon", "shadow_factor": 5.0, "value": 900.0, "population": 6641.0 }, "geometry": { "type": "Point", "coordinates": [ 475512.60344752232777, 5472521.948057623580098 ] } },
{ "type": "Feature", "properties": { "osm_id": "node/11331331001", "name": "Kardio-Med 3", "category": "doctors", "tags": { "addr:city": "Heidelberg", "addr:housenumber": "2-4", "addr:postcode": "69115", "addr:street": "Franz-Knauff-Straße", "amenity": "doctors", "healthcare": "doctor", "healthcare:speciality": "cardiology", "name": "Kardio-Med 3", "opening_hours": "Mo-Fr 08:00-12:00; Mo-Th 14:00-18:00" }, "geom_type": "node", "timeofday": "noon", "shadow_factor": 5.0, "value": 900.0, "population": 6641.0 }, "geometry": { "type": "Point", "coordinates": [ 477507.163453819113784, 5471916.670234973542392 ] } },
{ "type": "Feature", "properties": { "osm_id": "node/12127508571", "name": "Neuropsychologisches Zentrum Heidelberg", "category": "doctors", "tags": { "amenity": "doctors", "healthcare": "doctor", "healthcare:speciality": "neurology;psychiatry", "name": "Neuropsychologisches Zentrum Heidelberg", "phone": "+49 6221 31 46 33", "short_name": "NPZ", "website": "https://www.npz-heidelberg.de/" }, "geom_type": "node", "timeofday": "noon", "shadow_factor": 5.0, "value": 900.0, "population": 6641.0 }, "geometry": { "type": "Point", "coordinates": [ 477630.615266619366594, 5472157.313326912932098 ] } },
{ "type": "Feature", "properties": { "osm_id": "node/8510251511", "name": "Praxis für Allgemeinmedizin & Psychotherapie Dcr. med. Detlef Lorenzen", "category": "doctors", "tags": { "addr:city": "Heidelberg", "addr:housenumber": "87", "addr:postcode": "69115", "addr:street": "Rohrbacher Straße", "amenity": "doctors", "check_date:opening_hours": "2024-09-15", "healthcare": "doctor", "healthcare:speciality": "general", "name": "Praxis für Allgemeinmedizin & Psychotherapie Dcr. med. Detlef Lorenzen", "opening_hours": "Mo,We 09:00-11:00, Mo 17:00-18:00, Tu,Th 16:00-18:00, Fr 09:00-12:00" }, "geom_type": "node", "timeofday": "noon", "shadow_factor": 5.0, "value": 900.0, "population": 6641.0 }, "geometry": { "type": "Point", "coordinates": [ 477582.887009451165795, 5472036.205906247720122 ] } },
{ "type": "Feature", "properties": { "osm_id": "node/8897822956", "name": "Radiologie Rhein-Neckar", "category": "doctors", "tags": { "addr:city": "Heidelberg", "addr:country": "DE", "addr:housenumber": "52", "addr:postcode": "69115", "addr:street": "Grüne Meile", "amenity": "doctors", "healthcare": "doctor", "healthcare:speciality": "radiology", "name": "Radiologie Rhein-Neckar", "opening_hours": "Mo-Fr 08:00-22:00; Sa 08:30-16:00", "website": "https://radiologie-rhein-neckar.de", "wheelchair": "yes" }, "geom_type": "node", "timeofday": "noon", "shadow_factor": 5.0, "value": 900.0, "population": 6641.0 }, "geometry": { "type": "Point", "coordinates": [ 475553.942702424828894, 5472501.006915466859937 ] } },
{ "type": "Feature", "properties": { "osm_id": "node/8973918663", "name": "Aurum Apotheke", "category": "pharmacy", "tags": { "amenity": "pharmacy", "contact:website": "https://aurum-apo.de", "drive_through": "no", "name": "Aurum Apotheke", "opening_hours": "Mo-Fr 08:00-19:00", "phone": "+49 6221 3928750" }, "geom_type": "node", "timeofday": "noon", "shadow_factor": 5.0, "value": 900.0, "population": 6641.0 }, "geometry": { "type": "Point", "coordinates": [ 475535.852634885523003, 5472503.466876117512584 ] } },
{ "type": "Feature", "properties": { "osm_id": "node/10572193473", "name": "Europa Apotheke", "category": "pharmacy", "tags": { "amenity": "pharmacy", "healthcare": "pharmacy", "name": "Europa Apotheke" }, "geom_type": "node", "timeofday": "noon", "shadow_factor": 5.0, "value": 900.0, "population": 6641.0 }, "geometry": { "type": "Point", "coordinates": [ 475739.668750325159635, 5472597.536600032821298 ] } },
{ "type": "Feature", "properties": { "osm_id": "node/336248909", "name": "Gaisberg-Apotheke", "category": "pharmacy", "tags": { "amenity": "pharmacy", "check_date:opening_hours": "2024-06-05", "dispensing": "yes", "name": "Gaisberg-Apotheke", "opening_hours": "Sa 09:00-13:00; Mo-Fr 08:30-18:30", "wheelchair": "yes" }, "geom_type": "node", "timeofday": "noon", "shadow_factor": 5.0, "value": 900.0, "population": 6641.0 }, "geometry": { "type": "Point", "coordinates": [ 477547.50537359516602, 5471994.604818831197917 ] } },
{ "type": "Feature", "properties": { "osm_id": "node/444526119", "name": "Schwan Apotheke", "category": "pharmacy", "tags": { "addr:city": "Heidelberg", "addr:country": "DE", "addr:housenumber": "176", "addr:postcode": "69117", "addr:street": "Hauptstraße", "amenity": "pharmacy", "check_date": "2023-09-22", "contact:phone": "+49 6221 22487", "contact:website": "https://www.schwan-apotheke-heidelberg.de/", "healthcare": "pharmacy", "name": "Schwan Apotheke", "opening_hours": "Mo-Fr 09:00-18:30; Sa 09:00-14:00", "operator": "Ivanka Stolte", "wheelchair": "yes" }, "geom_type": "node", "timeofday": "noon", "shadow_factor": 5.0, "value": 900.0, "population": 6641.0 }, "geometry": { "type": "Point", "coordinates": [ 478898.672761169378646, 5473272.418241993524134 ] } },
{ "type": "Feature", "properties": { "osm_id": "node/1637576943", "name": "Alnatura Super Natur Markt", "category": "supermarket", "tags": { "addr:city": "Heidelberg", "addr:country": "DE", "addr:housenumber": "73", "addr:postcode": "69115", "addr:street": "Rohrbacher Straße", "brand": "Alnatura", "brand:wikidata": "Q876811", "brand:wikipedia": "en:Alnatura", "check_date:opening_hours": "2024-09-15", "contact:fax": "+49 (0)62217278323", "contact:phone": "+49 6221 7278324", "contact:website": "https://www.alnatura.de", "name": "Alnatura Super Natur Markt", "opening_hours": "Mo-Sa 07:00-20:00; Su,PH off", "organic": "only", "shop": "supermarket", "short_name": "Alnatura", "toilets:wheelchair": "no", "wheelchair": "yes" }, "geom_type": "node", "timeofday": "noon", "shadow_factor": 5.0, "value": 900.0, "population": 6641.0 }, "geometry": { "type": "Point", "coordinates": [ 477620.728122282831464, 5472159.554991925135255 ] } },
{ "type": "Feature", "properties": { "osm_id": "node/444526116", "name": "City-Markt Rüdinger", "category": "supermarket", "tags": { "addr:city": "Heidelberg", "addr:country": "DE", "addr:housenumber": "198", "addr:postcode": "69117", "addr:street": "Hauptstraße", "check_date": "2024-10-23", "name": "City-Markt Rüdinger", "opening_hours": "Mo-Sa 08:00-20:00; Su,PH off", "payment:credit_cards": "no", "payment:debit_cards": "yes", "shop": "supermarket", "wheelchair": "no" }, "geom_type": "node", "timeofday": "noon", "shadow_factor": 5.0, "value": 900.0, "population": 6641.0 }, "geometry": { "type": "Point", "coordinates": [ 478994.733196697430685, 5473281.231732322834432 ] } },
{ "type": "Feature", "properties": { "osm_id": "node/539837543", "name": "Nahkauf", "category": "supermarket", "tags": { "addr:city": "Heidelberg", "addr:country": "DE", "addr:housenumber": "72", "addr:postcode": "69115", "addr:street": "Rohrbacher Straße", "brand": "Nahkauf", "brand:wikidata": "Q57515238", "check_date": "2024-06-05", "name": "Nahkauf", "opening_hours": "Mo-Sa 08:00-21:00; Su,PH off", "operator": "Familie Lannert", "shop": "supermarket", "wheelchair": "limited" }, "geom_type": "node", "timeofday": "noon", "shadow_factor": 5.0, "value": 900.0, "population": 6641.0 }, "geometry": { "type": "Point", "coordinates": [ 477585.029932656616438, 5472139.611775361932814 ] } },
{ "type": "Feature", "properties": { "osm_id": "node/2144473976", "name": "Serpa Markt", "category": "supermarket", "tags": { "addr:city": "Heidelberg", "addr:country": "DE", "addr:housenumber": "21", "addr:postcode": "69115", "addr:street": "Eppelheimer Straße", "diet:halal": "only", "name": "Serpa Markt", "opening_hours": "Mo-Sa 08:00-20:00", "payment:credit_cards": "no", "payment:debit_cards": "yes", "shop": "supermarket", "wheelchair": "limited" }, "geom_type": "node", "timeofday": "noon", "shadow_factor": 5.0, "value": 900.0, "population": 6641.0 }, "geometry": { "type": "Point", "coordinates": [ 475370.49363187677227, 5472604.032445756718516 ] } },
{ "type": "Feature", "properties": { "osm_id": "12368401966", "name": "Seniorenzentrum Weststadt", "category": "senior_facility", "tags": { "amenity": "social_facility", "name": "Seniorenzentrum Weststadt", "social_facility": "assisted_living", "social_facility:for": "senior" }, "geom_type": "node", "timeofday": "noon", "shadow_factor": 5.0, "value": 900.0, "population": 6641.0 }, "geometry": { "type": "Point", "coordinates": [ 477462.323923963005655, 5472008.462520506232977 ] } },
{ "type": "Feature", "properties": { "osm_id": "way/246704992", "name": "Dreikäsehoch", "category": "kindergarten", "tags": { "addr:city": "Heidelberg", "addr:country": "DE", "addr:housenumber": "17", "addr:postcode": "69117", "addr:street": "Heiliggeiststraße", "amenity": "kindergarten", "building": "kindergarten", "check_date": "2024-05-09", "name": "Dreikäsehoch", "website": "https://www.kita-dreikäsehoch.de" }, "geom_type": "way", "timeofday": "noon", "shadow_factor": 5.0, "value": 900.0, "population": 6641.0 }, "geometry": { "type": "Point", "coordinates": [ 479177.299492391408421, 5473397.912236933596432 ] } },
{ "type": "Feature", "properties": { "osm_id": "way/181679237", "name": "Kinderkiste", "category": "kindergarten", "tags": { "addr:city": "Heidelberg", "addr:country": "DE", "addr:housenumber": "5", "addr:postcode": "69120", "addr:street": "Ziegelhäuser Landstraße", "amenity": "kindergarten", "building": "residential", "check_date": "2024-05-23", "email": "leitung.ziegelhaeuser@kinderkiste-hd.de", "lunch": "yes", "max_age": "3", "min_age": "1", "name": "Kinderkiste", "nursery": "yes", "operator": "Kinderkiste e.V.", "phone": "+49 6221 455603", "source": "HiRes aerial imagery" }, "geom_type": "way", "timeofday": "noon", "shadow_factor": 5.0, "value": 900.0, "population": 6641.0 }, "geometry": { "type": "Point", "coordinates": [ 478988.881542957387865, 5473689.876733309589326 ] } },
{ "type": "Feature", "properties": { "osm_id": "way/524660240", "name": "Kindertagesstätte Gaisbergstraße", "category": "kindergarten", "tags": { "addr:city": "Heidelberg", "addr:country": "DE", "addr:housenumber": "81", "addr:postcode": "69115", "addr:street": "Gaisbergstraße", "amenity": "kindergarten", "check_date": "2024-03-03", "name": "Kindertagesstätte Gaisbergstraße" }, "geom_type": "way", "timeofday": "noon", "shadow_factor": 5.0, "value": 900.0, "population": 6641.0 }, "geometry": { "type": "Point", "coordinates": [ 477703.284982519573532, 5472077.16015571821481 ] } },
{ "type": "Feature", "properties": { "osm_id": "way/555789896", "name": "Städtische Kindertageseinrichtung Adolf-Engelhardt-Straße", "category": "kindergarten", "tags": { "amenity": "kindergarten", "name": "Städtische Kindertageseinrichtung Adolf-Engelhardt-Straße", "operator": "Stadt Heidelberg, Kinder- und Jugendamt" }, "geom_type": "way", "timeofday": "noon", "shadow_factor": 5.0, "value": 900.0, "population": 6641.0 }, "geometry": { "type": "Point", "coordinates": [ 475193.459734598640352, 5469553.127570572309196 ] } }
]
}
