{
"type": "FeatureCollection",
"name": "pois_hd_senior_facility_combined",
"crs": { "type": "name", "properties": { "name": "urn:ogc:def:crs:OGC:1.3:CRS84" } },
"features": [
{ "type": "Feature", "properties": { "osm_id": "2793896116", "name": "SRH Pflege Heidelberg Junges Wohnen", "category": "senior_facility", "tags": { "addr:city": "Heidelberg", "addr:housenumber": "4", "addr:postcode": "69123", "addr:street": "Ludwig-Guttmann-Straße", "amenity": "nursing_home", "name": "SRH Pflege Heidelberg Junges Wohnen", "opening_hours": "24/7", "phone": "+49 6221 882550", "website": "https://www.srh-pflege.de/" }, "geom_type": "node" }, "geometry": { "type": "Point", "coordinates": [ 8.6530094, 49.4140968 ] } },
{ "type": "Feature", "properties": { "osm_id": "5227329870", "name": "AWO-Seniorenzentrum Im Kranichgarten", "category": "senior_facility", "tags": { "amenity": "social_facility", "brand": "Arbeiterwohlfahrt", "brand:wikidata": "Q627256", "name": "AWO-Seniorenzentrum Im Kranichgarten", "social_facility": "assisted_living", "social_facility:for": "senior", "website": "https://www.awo-im-kranichgarten.de/" }, "geom_type": "node" }, "geometry": { "type": "Point", "coordinates": [ 8.64399, 49.394859 ] } },
{ "type": "Feature", "properties": { "osm_id": "7551958037", "name": "Seniorenzentrum Kirchheim", "category": "senior_facility", "tags": { "amenity": "social_facility", "check_date": "2024-04-02", "name": "Seniorenzentrum Kirchheim", "social_facility": "nursing_home" }, "geom_type": "node" }, "geometry": { "type": "Point", "coordinates": [ 8.6694668, 49.3789075 ] } },
{ "type": "Feature", "properties": { "osm_id": "7553093487", "name": "Südstadtresidenz Caroline Sammet", "category": "senior_facility", "tags": { "amenity": "social_facility", "check_date": "2024-07-04", "level": "0;1", "name": "Südstadtresidenz Caroline Sammet", "social_facility": "nursing_home" }, "geom_type": "node" }, "geometry": { "type": "Point", "coordinates": [ 8.6868878, 49.3898448 ] } },
{ "type": "Feature", "properties": { "osm_id": "9964284763", "name": "Altes reformiertes Spital", "category": "senior_facility", "tags": { "amenity": "social_facility", "check_date": "2024-06-05", "name": "Altes reformiertes Spital", "social_facility": "assisted_living" }, "geom_type": "node" }, "geometry": { "type": "Point", "coordinates": [ 8.6978306, 49.4089563 ] } },
{ "type": "Feature", "properties": { "osm_id": "12368401966", "name": "Seniorenzentrum Weststadt", "category": "senior_facility", "tags": { "amenity": "social_facility", "name": "Seniorenzentrum Weststadt", "social_facility": "assisted_living", "social_facility:for": "senior" }, "geom_type": "node" }, "geometry": { "type": "Point", "coordinates": [ 8.6893688, 49.4003476 ] } },
{ "type": "Feature", "properties": { "osm_id": "105890139", "name": "Augustinum Seniorenresidenz Heidelberg", "category": "senior_facility", "tags": { "addr:city": "Heidelberg", "addr:housenumber": "2", "addr:postcode": "69126", "addr:street": "Jaspersstraße", "amenity": "social_facility", "building": "yes", "name": "Augustinum Seniorenresidenz Heidelberg", "name:etymology:wikidata": "Q8018", "social_facility": "assisted_living", "social_facility:for": "senior", "website": "https://www.augustinum.de/heidelberg/" }, "geom_type": "way" }, "geometry": { "type": "Point", "coordinates": [ 8.7022718, 49.3633549 ] } },
{ "type": "Feature", "properties": { "osm_id": "113319257", "name": "Agaplesion Maria von Graimberg", "category": "senior_facility", "tags": { "addr:city": "Heidelberg", "addr:housenumber": "60", "addr:postcode": "69126", "addr:street": "Max-Joseph-Straße", "amenity": "social_facility", "building": "yes", "check_date": "2024-09-10", "name": "Agaplesion Maria von Graimberg", "name:etymology:wikidata": "Q1895916", "social_facility": "assisted_living", "social_facility:for": "senior", "source": "Bing", "website": "https://www.graimberg-haus.de" }, "geom_type": "way" }, "geometry": { "type": "Point", "coordinates": [ 8.6792547, 49.378695 ] } },
{ "type": "Feature", "properties": { "osm_id": "203219708", "name": "Seniorenzentrum Pfaffengrund", "category": "senior_facility", "tags": { "addr:city": "Heidelberg", "addr:country": "DE", "addr:housenumber": "2", "addr:postcode": "69123", "addr:street": "Storchenweg", "amenity": "social_facility", "building": "yes", "name": "Seniorenzentrum Pfaffengrund", "social_facility": "nursing_home", "source": "HiRes aerial imagery", "website": "https://www.seniorenzentren-hd.de/seniorenzentren/pfaffengrund/", "wheelchair": "yes" }, "geom_type": "way" }, "geometry": { "type": "Point", "coordinates": [ 8.6451991, 49.4015187 ] } },
{ "type": "Feature", "properties": { "osm_id": "264614510", "name": "Seniorenzentrum Boxberg-Emmertsgrund", "category": "senior_facility", "tags": { "addr:city": "Heidelberg", "addr:country": "DE", "addr:housenumber": "1", "addr:postcode": "69126", "addr:street": "Alexander-Mitscherlich-Platz", "amenity": "social_facility", "building": "yes", "name": "Seniorenzentrum Boxberg-Emmertsgrund", "operator": "Caritas Heidelberg", "social_facility": "nursing_home", "social_facility:for": "senior" }, "geom_type": "way" }, "geometry": { "type": "Point", "coordinates": [ 8.7048771, 49.3689576 ] } },
{ "type": "Feature", "properties": { "osm_id": "517530734", "name": "Louise-Ebert-Haus", "category": "senior_facility", "tags": { "alt_name": "Louise-Ebert-Zentrum", "amenity": "social_facility", "name": "Louise-Ebert-Haus", "name:etymology:wikidata": "Q88995", "social_facility": "nursing_home", "website": "https://www.awo-seniorenzentrum-louise-ebert-haus.de/unser-haus/willkommen.html", "wheelchair": "yes" }, "geom_type": "way" }, "geometry": { "type": "Point", "coordinates": [ 8.7042137, 49.3724599 ] } },
{ "type": "Feature", "properties": { "osm_id": "783859868", "name": "Alten- und Pflegeheim Phillipus", "category": "senior_facility", "tags": { "amenity": "social_facility", "check_date": "2024-07-01", "name": "Alten- und Pflegeheim Phillipus", "social_facility": "nursing_home" }, "geom_type": "way" }, "geometry": { "type": "Point", "coordinates": [ 8.6841265, 49.4227523 ] } },
{ "type": "Feature", "properties": { "osm_id": "849913341", "name": "Schlosskirschenpark", "category": "senior_facility", "tags": { "addr:city": "Heidelberg", "addr:country": "DE", "addr:housenumber": "2", "addr:postcode": "69124", "addr:street": "Schlosskirschenweg", "amenity": "social_facility", "building": "yes", "building:levels": "4", "check_date": "2022-03-18", "height": "13 m", "name": "Schlosskirschenpark", "operator": "Schlosskirschenpark GmbH & Co. KG", "operator:type": "private", "roof:levels": "0", "social_facility": "nursing_home", "social_facility:for": "senior" }, "geom_type": "way" }, "geometry": { "type": "Point", "coordinates": [ 8.6624419, 49.3848529 ] } },
{ "type": "Feature", "properties": { "osm_id": "8311892", "name": "Agaplesion Bethanien Lindenhof", "category": "senior_facility", "tags": { "amenity": "social_facility", "building": "yes", "name": "Agaplesion Bethanien Lindenhof", "social_facility": "nursing_home", "type": "multipolygon" }, "geom_type": "relation" }, "geometry": { "type": "Point", "coordinates": [ 8.681409, 49.3799025 ] } },
{ "type": "Feature", "properties": { "osm_id": null, "name": "Stadtresidenz Heidelberg", "category": "senior_facility", "tags": null, "geom_type": "node" }, "geometry": { "type": "Point", "coordinates": [ 8.6893403, 49.407108699999988 ] } },
{ "type": "Feature", "properties": { "osm_id": null, "name": "Pflegeheimat St.Hedwig", "category": "senior_facility", "tags": null, "geom_type": "node" }, "geometry": { "type": "Point", "coordinates": [ 8.6960736, 49.4088649 ] } },
{ "type": "Feature", "properties": { "osm_id": null, "name": "ASB Parkresidenz am Neckar", "category": "senior_facility", "tags": null, "geom_type": "node" }, "geometry": { "type": "Point", "coordinates": [ 8.7575784, 49.4179672 ] } },
{ "type": "Feature", "properties": { "osm_id": null, "name": "Mathilde - Vogt - Haus Altenzentrum", "category": "senior_facility", "tags": null, "geom_type": "node" }, "geometry": { "type": "Point", "coordinates": [ 8.6603664, 49.3813818 ] } },
{ "type": "Feature", "properties": { "osm_id": null, "name": "Seniorenzentrum Rohrbach - Diakonisches Werk Heidelberg", "category": "senior_facility", "tags": null, "geom_type": "node" }, "geometry": { "type": "Point", "coordinates": [ 8.6791199, 49.376141499999989 ] } },
{ "type": "Feature", "properties": { "osm_id": null, "name": "Alpheide-Seniorenzentrum GmbH", "category": "senior_facility", "tags": null, "geom_type": "node" }, "geometry": { "type": "Point", "coordinates": [ 8.6873931, 49.3815573 ] } },
{ "type": "Feature", "properties": { "osm_id": null, "name": "Vitalis Heidelberg - Vitalis Heidelberg GmbH", "category": "senior_facility", "tags": null, "geom_type": "node" }, "geometry": { "type": "Point", "coordinates": [ 8.6627058, 49.3843757 ] } },
{ "type": "Feature", "properties": { "osm_id": null, "name": "ASB in Wieblingen Alt Werden", "category": "senior_facility", "tags": null, "geom_type": "node" }, "geometry": { "type": "Point", "coordinates": [ 8.64695, 49.42822 ] } },
{ "type": "Feature", "properties": { "osm_id": null, "name": "Caritas-Altenpflegeheim St. Michael", "category": "senior_facility", "tags": null, "geom_type": "node" }, "geometry": { "type": "Point", "coordinates": [ 8.6875905, 49.425539699999987 ] } },
{ "type": "Feature", "properties": { "osm_id": null, "name": "Seniorenzentrum Altstadt - Diakonisches Werk Heidelberg", "category": "senior_facility", "tags": null, "geom_type": "node" }, "geometry": { "type": "Point", "coordinates": [ 8.7055589, 49.4120705 ] } },
{ "type": "Feature", "properties": { "osm_id": null, "name": "Seniorenzentrum Bergheim", "category": "senior_facility", "tags": null, "geom_type": "node" }, "geometry": { "type": "Point", "coordinates": [ 8.6788816, 49.4069583 ] } },
{ "type": "Feature", "properties": { "osm_id": null, "name": "Seniorenzentrum Handschuhsheim", "category": "senior_facility", "tags": null, "geom_type": "node" }, "geometry": { "type": "Point", "coordinates": [ 8.6876632, 49.427751 ] } },
{ "type": "Feature", "properties": { "osm_id": null, "name": "Seniorenzentrum Neuenheim", "category": "senior_facility", "tags": null, "geom_type": "node" }, "geometry": { "type": "Point", "coordinates": [ 8.69038, 49.41343 ] } },
{ "type": "Feature", "properties": { "osm_id": null, "name": "Seniorenzentrum Ziegelhausen", "category": "senior_facility", "tags": null, "geom_type": "node" }, "geometry": { "type": "Point", "coordinates": [ 8.7612368, 49.4171968 ] } },
{ "type": "Feature", "properties": { "osm_id": null, "name": "Wilhelm-Frommel-Haus/Tagespflege St. Anna", "category": "senior_facility", "tags": null, "geom_type": "node" }, "geometry": { "type": "Point", "coordinates": [ 8.6973004, 49.4090987 ] } },
{ "type": "Feature", "properties": { "osm_id": null, "name": "Züllig-Stiftung für arme Pfarrwaisen", "category": "senior_facility", "tags": null, "geom_type": "node" }, "geometry": { "type": "Point", "coordinates": [ 8.6911949, 49.4052793 ] } },
{ "type": "Feature", "properties": { "osm_id": null, "name": "Bethanien-Krankenhaus -Geriatrisches Zentrum- Abteilung für Geriatrie", "category": "senior_facility", "tags": null, "geom_type": "node" }, "geometry": { "type": "Point", "coordinates": [ 8.6905235, 49.391865499999987 ] } }
]
}
