{
"type": "FeatureCollection",
"name": "pois_hd_supermarket_osm",
"crs": { "type": "name", "properties": { "name": "urn:ogc:def:crs:OGC:1.3:CRS84" } },
"features": [
{ "type": "Feature", "properties": { "osm_id": "node/332583025", "name": "ALDI Süd", "category": "supermarket", "tags": { "addr:city": "Heidelberg", "addr:country": "DE", "addr:housenumber": "11/1", "addr:postcode": "69115", "addr:street": "Poststraße", "brand": "ALDI Süd", "check_date": "2023-12-09", "name": "ALDI Süd", "not:brand:wikidata": "Q41171672", "opening_hours": "Mo-Sa 08:00-21:00; Su,PH off", "shop": "supermarket", "website": "https://filialen.aldi-sued.de/baden-wuerttemberg/heidelberg/poststrasse-11", "wheelchair": "yes" }, "geom_type": "node" }, "geometry": { "type": "Point", "coordinates": [ 8.6893309, 49.407267 ] } },
{ "type": "Feature", "properties": { "osm_id": "way/27930484", "name": "ALDI Süd", "category": "supermarket", "tags": { "addr:city": "Heidelberg", "addr:country": "DE", "addr:housenumber": "17", "addr:postcode": "69121", "addr:street": "Fritz-Frey-Straße", "brand": "ALDI Süd", "brand:wikidata": "Q41171672", "brand:wikipedia": "en:Aldi", "building": "retail", "building:levels": "1", "check_date:opening_hours": "2023-10-14", "man_made": "surveillance", "name": "ALDI Süd", "opening_hours": "Mo-Sa 08:00-20:00; Su,PH off", "roof:levels": "0", "shop": "supermarket", "surveillance": "indoor", "toilets:wheelchair": "no", "website": "https://filialen.aldi-sued.de/baden-wuerttemberg/heidelberg-handschuhsheim/fritz-frey-strasse-17", "wheelchair": "yes" }, "geom_type": "way" }, "geometry": { "type": "Point", "coordinates": [ 8.6797977, 49.436507 ] } },
{ "type": "Feature", "properties": { "osm_id": "way/235866069", "name": "ALDI Süd", "category": "supermarket", "tags": { "addr:city": "Heidelberg", "addr:country": "DE", "addr:housenumber": "8", "addr:postcode": "69123", "addr:street": "Im Schuhmachergewann", "brand": "ALDI Süd", "brand:wikidata": "Q41171672", "brand:wikipedia": "en:Aldi", "building": "retail", "building:levels": "1", "check_date:opening_hours": "2023-08-22", "name": "ALDI Süd", "opening_hours": "Mo-Sa 08:00-20:00", "roof:levels": "0", "roof:shape": "gabled", "shop": "supermarket", "website": "https://filialen.aldi-sued.de/baden-wuerttemberg/heidelberg/im-schuhmachergewann-8", "wheelchair": "yes" }, "geom_type": "way" }, "geometry": { "type": "Point", "coordinates": [ 8.6392426, 49.4262195 ] } },
{ "type": "Feature", "properties": { "osm_id": "way/241687558", "name": "ALDI Süd", "category": "supermarket", "tags": { "addr:city": "Heidelberg", "addr:country": "DE", "addr:housenumber": "13", "addr:postcode": "69124", "addr:street": "Pleikartsförster Straße", "brand": "ALDI Süd", "brand:wikidata": "Q41171672", "brand:wikipedia": "en:Aldi", "building": "retail", "name": "ALDI Süd", "opening_hours": "Mo-Sa 08:00-21:00", "shop": "supermarket", "website": "https://filialen.aldi-sued.de/baden-wuerttemberg/heidelberg/pleikartsfoerster-strasse-13", "wheelchair": "yes" }, "geom_type": "way" }, "geometry": { "type": "Point", "coordinates": [ 8.664363, 49.3786457 ] } },
{ "type": "Feature", "properties": { "osm_id": "way/256057216", "name": "ALDI Süd", "category": "supermarket", "tags": { "addr:city": "Heidelberg", "addr:housenumber": "18", "addr:postcode": "69126", "addr:street": "Felix-Wankel-Straße", "brand": "ALDI Süd", "brand:wikidata": "Q41171672", "brand:wikipedia": "en:Aldi", "building": "commercial", "building:levels": "1", "check_date:opening_hours": "2024-03-27", "name": "ALDI Süd", "opening_hours": "Mo-Sa 08:00-21:00; Su,PH off", "roof:shape": "flat", "shop": "supermarket", "smoking": "no", "source:geometry": "DigitalGlobe Standard Imagery", "website": "https://filialen.aldi-sued.de/baden-wuerttemberg/heidelberg/felix-wankel-strasse-18", "wheelchair": "yes" }, "geom_type": "way" }, "geometry": { "type": "Point", "coordinates": [ 8.6784175, 49.3830137 ] } },
{ "type": "Feature", "properties": { "osm_id": "way/456112466", "name": "ALDI Süd", "category": "supermarket", "tags": { "addr:city": "Heidelberg", "addr:housenumber": "49", "addr:postcode": "69120", "addr:street": "Berliner Straße", "brand": "ALDI Süd", "check_date": "2024-07-10", "check_date:opening_hours": "2024-06-24", "level": "0", "name": "ALDI Süd", "not:brand:wikidata": "Q41171672", "opening_hours": "Mo-Sa 08:00-21:00; Su,PH off", "payment:mastercard": "yes", "payment:visa": "yes", "roof:levels": "0", "roof:shape": "flat", "shop": "supermarket", "website": "https://filialen.aldi-sued.de/baden-wuerttemberg/heidelberg/berliner-strasse-49", "wheelchair": "yes" }, "geom_type": "way" }, "geometry": { "type": "Point", "coordinates": [ 8.6753667, 49.4188472 ] } },
{ "type": "Feature", "properties": { "osm_id": "node/7438510124", "name": "Aldi Süd", "category": "supermarket", "tags": { "addr:city": "Heidelberg", "addr:housenumber": "14", "addr:postcode": "69115", "addr:street": "Galileistraße", "brand": "ALDI Süd", "brand:wikidata": "Q41171672", "brand:wikipedia": "en:Aldi", "check_date:opening_hours": "2024-05-02", "name": "Aldi Süd", "opening_hours": "Mo-Sa 08:00-21:00", "payment:cash": "yes", "payment:credit_cards": "yes", "payment:debit_cards": "yes", "shop": "supermarket", "website": "https://filialen.aldi-sued.de/baden-wuerttemberg/heidelberg/galileistrasse-14", "wheelchair": "yes" }, "geom_type": "node" }, "geometry": { "type": "Point", "coordinates": [ 8.6670799, 49.4041613 ] } },
{ "type": "Feature", "properties": { "osm_id": "way/155290350", "name": "Aldi Süd", "category": "supermarket", "tags": { "addr:city": "Heidelberg", "addr:country": "DE", "addr:housenumber": "76-84", "addr:postcode": "69118", "addr:street": "Kleingemünder Straße", "brand": "ALDI Süd", "brand:wikidata": "Q41171672", "brand:wikipedia": "en:Aldi", "building": "supermarket", "name": "Aldi Süd", "opening_hours": "Mo-Sa 08:00-21:00", "shop": "supermarket", "website": "https://filialen.aldi-sued.de/baden-wuerttemberg/heidelberg/kleingemuender-strasse-76-82", "wheelchair": "yes" }, "geom_type": "way" }, "geometry": { "type": "Point", "coordinates": [ 8.7752617, 49.4137653 ] } },
{ "type": "Feature", "properties": { "osm_id": "node/6219625489", "name": "Ali Baba", "category": "supermarket", "tags": { "name": "Ali Baba", "shop": "supermarket" }, "geom_type": "node" }, "geometry": { "type": "Point", "coordinates": [ 8.7049417, 49.3642803 ] } },
{ "type": "Feature", "properties": { "osm_id": "node/5580801925", "name": "Alnatura", "category": "supermarket", "tags": { "addr:city": "Heidelberg", "addr:housenumber": "7-9", "addr:postcode": "69115", "addr:street": "Langer Anger", "brand": "Alnatura", "brand:wikidata": "Q876811", "brand:wikipedia": "en:Alnatura", "check_date": "2025-03-03", "check_date:opening_hours": "2023-04-21", "level": "0", "name": "Alnatura", "opening_hours": "Mo-Sa 08:00-20:00; PH off", "organic": "only", "shop": "supermarket", "stroller": "yes", "wheelchair": "yes" }, "geom_type": "node" }, "geometry": { "type": "Point", "coordinates": [ 8.6723368, 49.3986433 ] } },
{ "type": "Feature", "properties": { "osm_id": "node/1637576943", "name": "Alnatura Super Natur Markt", "category": "supermarket", "tags": { "addr:city": "Heidelberg", "addr:country": "DE", "addr:housenumber": "73", "addr:postcode": "69115", "addr:street": "Rohrbacher Straße", "brand": "Alnatura", "brand:wikidata": "Q876811", "brand:wikipedia": "en:Alnatura", "check_date:opening_hours": "2024-09-15", "contact:fax": "+49 (0)62217278323", "contact:phone": "+49 6221 7278324", "contact:website": "https://www.alnatura.de", "name": "Alnatura Super Natur Markt", "opening_hours": "Mo-Sa 07:00-20:00; Su,PH off", "organic": "only", "shop": "supermarket", "short_name": "Alnatura", "toilets:wheelchair": "no", "wheelchair": "yes" }, "geom_type": "node" }, "geometry": { "type": "Point", "coordinates": [ 8.6915435, 49.4017125 ] } },
{ "type": "Feature", "properties": { "osm_id": "node/3613411403", "name": "Annas Unverpacktes", "category": "supermarket", "tags": { "addr:city": "Heidelberg", "addr:housenumber": "37", "addr:postcode": "69120", "addr:street": "Ladenburger Straße", "addr:suburb": "Neuenheim", "bulk_purchase": "yes", "check_date:opening_hours": "2024-07-31", "description": "Unverpackte Biolebensmittel, nachhaltiges und regionales Zubehör für Küche und Haushalt", "name": "Annas Unverpacktes", "opening_hours": "Tu-Sa 10:00-18:30", "operator": "Andreas Wille", "organic": "only", "phone": "+49 6221 6724604", "reusable_packaging:accept": "only", "shop": "supermarket", "website": "https://www.annas-unverpacktes.de/", "wheelchair": "yes", "zero_waste": "only" }, "geom_type": "node" }, "geometry": { "type": "Point", "coordinates": [ 8.6885716, 49.4142758 ] } },
{ "type": "Feature", "properties": { "osm_id": "node/4857226923", "name": "Aras", "category": "supermarket", "tags": { "addr:city": "Heidelberg", "addr:country": "DE", "addr:housenumber": "37", "addr:postcode": "69115", "addr:street": "Bergheimer Straße", "check_date:opening_hours": "2023-11-16", "diet:halal": "yes", "name": "Aras", "name:de": "Aras", "opening_hours": "Mo-Sa 09:00-20:00; Su,PH off", "payment:cash": "yes", "shop": "supermarket", "wheelchair": "no" }, "geom_type": "node" }, "geometry": { "type": "Point", "coordinates": [ 8.6889798, 49.4083777 ] } },
{ "type": "Feature", "properties": { "osm_id": "node/3899648801", "name": "Avec", "category": "supermarket", "tags": { "description": "auch sonn- und feiertags geöffnet", "name": "Avec", "opening_hours": "07:00-20:00", "shop": "supermarket" }, "geom_type": "node" }, "geometry": { "type": "Point", "coordinates": [ 8.7027072, 49.4111616 ] } },
{ "type": "Feature", "properties": { "osm_id": "node/444526116", "name": "City-Markt Rüdinger", "category": "supermarket", "tags": { "addr:city": "Heidelberg", "addr:country": "DE", "addr:housenumber": "198", "addr:postcode": "69117", "addr:street": "Hauptstraße", "check_date": "2024-10-23", "name": "City-Markt Rüdinger", "opening_hours": "Mo-Sa 08:00-20:00; Su,PH off", "payment:credit_cards": "no", "payment:debit_cards": "yes", "shop": "supermarket", "wheelchair": "no" }, "geom_type": "node" }, "geometry": { "type": "Point", "coordinates": [ 8.710422, 49.4118508 ] } },
{ "type": "Feature", "properties": { "osm_id": "node/297044318", "name": "EDEKA Sabine Bischoff", "category": "supermarket", "tags": { "addr:city": "Heidelberg", "addr:country": "DE", "addr:housenumber": "3", "addr:postcode": "69118", "addr:street": "In der Neckarhelle", "addr:suburb": "Ziegelhausen", "brand": "EDEKA", "brand:wikidata": "Q701755", "brand:wikipedia": "de:Edeka", "name": "EDEKA Sabine Bischoff", "opening_hours": "Mo-Sa 08:00-21:00", "phone": "+49 6221 800735", "shop": "supermarket", "source": "survey", "website": "https://www.edeka.de/eh/südwest/nah-und-gut-bischoff-in-der-neckarhelle-1-3/index.jsp", "wheelchair": "yes" }, "geom_type": "node" }, "geometry": { "type": "Point", "coordinates": [ 8.7566479, 49.4178839 ] } },
{ "type": "Feature", "properties": { "osm_id": "node/7222577341", "name": "EDEKA Scheck-In-Center", "category": "supermarket", "tags": { "addr:city": "Heidelberg", "addr:housenumber": "4", "addr:postcode": "69115", "addr:street": "Galileistraße", "brand": "EDEKA", "brand:wikidata": "Q701755", "brand:wikipedia": "de:Edeka", "check_date:opening_hours": "2024-05-02", "name": "EDEKA Scheck-In-Center", "opening_hours": "Mo-Sa 07:00-22:00; Su,PH off", "payment:cash": "yes", "payment:coins": "yes", "payment:credit_cards": "yes", "payment:debit_cards": "yes", "payment:visa": "yes", "shop": "supermarket", "wheelchair": "yes" }, "geom_type": "node" }, "geometry": { "type": "Point", "coordinates": [ 8.6681538, 49.4043814 ] } },
{ "type": "Feature", "properties": { "osm_id": "node/1532732055", "name": "Extra Markt", "category": "supermarket", "tags": { "name": "Extra Markt", "opening_hours": "Mo-Sa 08:00-18:30", "shop": "supermarket", "wheelchair": "yes" }, "geom_type": "node" }, "geometry": { "type": "Point", "coordinates": [ 8.7029979, 49.3747776 ] } },
{ "type": "Feature", "properties": { "osm_id": "node/273685438", "name": "Fair & Quer", "category": "supermarket", "tags": { "addr:city": "Heidelberg", "addr:country": "DE", "addr:housenumber": "1", "addr:postcode": "69123", "addr:street": "Adlerstraße", "check_date": "2023-05-31", "check_date:opening_hours": "2021-05-27", "name": "Fair & Quer", "opening_hours": "Mo-Fr 08:00-20:00; Sa 08:00-18:00", "organic": "only", "shop": "supermarket", "wheelchair": "yes" }, "geom_type": "node" }, "geometry": { "type": "Point", "coordinates": [ 8.6443664, 49.4249326 ] } },
{ "type": "Feature", "properties": { "osm_id": "node/443653488", "name": "Fair & Quer", "category": "supermarket", "tags": { "addr:city": "Heidelberg", "addr:country": "DE", "addr:housenumber": "52", "addr:postcode": "69121", "addr:street": "Steubenstraße", "check_date:opening_hours": "2024-03-10", "contact:email": "kontakt@fairundquer.de", "contact:fax": "+49 6221 5860518", "contact:phone": "+49 6221 5860516", "contact:website": "https://fairundquer.de", "name": "Fair & Quer", "opening_hours": "Mo-We 08:00-19:00; Th-Fr 08:00-20:00; Sa 08:00-14:00", "organic": "only", "outdoor_seating": "no", "payment:credit_cards": "yes", "payment:debit_cards": "yes", "shop": "supermarket", "wheelchair": "yes" }, "geom_type": "node" }, "geometry": { "type": "Point", "coordinates": [ 8.6878404, 49.4250822 ] } },
{ "type": "Feature", "properties": { "osm_id": "node/6992020427", "name": "Go Asia", "category": "supermarket", "tags": { "brand": "Go Asia", "brand:wikidata": "Q102381911", "level": "0", "name": "Go Asia", "opening_hours": "Mo-Sa 10:00-20:00; Su,PH off", "shop": "supermarket", "website": "https://goasia.net/de/store_list/heidelberg", "wheelchair": "yes" }, "geom_type": "node" }, "geometry": { "type": "Point", "coordinates": [ 8.6966797, 49.4090741 ] } },
{ "type": "Feature", "properties": { "osm_id": "node/9474209612", "name": "Istanbul Supermarkt", "category": "supermarket", "tags": { "addr:city": "Heidelberg", "addr:country": "DE", "addr:housenumber": "15", "addr:postcode": "69126", "addr:street": "Haberstraße", "name": "Istanbul Supermarkt", "shop": "supermarket", "website": "https://istanbul-supermarkt-heidelberg.eatbu.com" }, "geom_type": "node" }, "geometry": { "type": "Point", "coordinates": [ 8.6809742, 49.3648122 ] } },
{ "type": "Feature", "properties": { "osm_id": "node/1233857319", "name": "Kaufland", "category": "supermarket", "tags": { "addr:city": "Heidelberg", "addr:housenumber": "1", "addr:postcode": "69126", "addr:street": "Hertzstraße", "brand": "Kaufland", "brand:wikidata": "Q685967", "brand:wikipedia": "en:Kaufland", "level": "0", "name": "Kaufland", "opening_hours": "Mo-Sa 07:00-22:00", "shop": "supermarket", "wheelchair": "yes", "wheelchair:description": "Einkaufen, Essen, Trinken, Toilette, Parkplätze alles barrierefrei" }, "geom_type": "node" }, "geometry": { "type": "Point", "coordinates": [ 8.6855322, 49.367401 ] } },
{ "type": "Feature", "properties": { "osm_id": "node/4391405912", "name": "Kaufland", "category": "supermarket", "tags": { "addr:city": "Heidelberg", "addr:country": "DE", "addr:housenumber": "61", "addr:postcode": "69115", "addr:street": "Kurfürsten-Anlage", "brand": "Kaufland", "brand:wikidata": "Q685967", "brand:wikipedia": "en:Kaufland", "check_date:opening_hours": "2024-11-06", "name": "Kaufland", "opening_hours": "Mo-Sa 07:00-22:00; Su,PH off", "phone": "+49 6221 97190", "shop": "supermarket", "wheelchair": "yes" }, "geom_type": "node" }, "geometry": { "type": "Point", "coordinates": [ 8.681372, 49.4045958 ] } },
{ "type": "Feature", "properties": { "osm_id": "way/26918589", "name": "Kaufland", "category": "supermarket", "tags": { "addr:city": "Heidelberg", "addr:country": "DE", "addr:housenumber": "78", "addr:postcode": "69123", "addr:street": "Eppelheimer Straße", "brand": "Kaufland", "brand:wikidata": "Q685967", "brand:wikipedia": "en:Kaufland", "building": "retail", "building:levels": "2", "name": "Kaufland", "opening_hours": "Mo-Sa 07:00-22:00", "roof:levels": "0", "shop": "supermarket", "wheelchair": "yes" }, "geom_type": "way" }, "geometry": { "type": "Point", "coordinates": [ 8.6461773, 49.4041507 ] } },
{ "type": "Feature", "properties": { "osm_id": "node/371859179", "name": "Lidl", "category": "supermarket", "tags": { "addr:city": "Heidelberg", "addr:country": "DE", "addr:housenumber": "2", "addr:postcode": "69124", "addr:street": "Heuauer Weg", "brand": "Lidl", "brand:wikidata": "Q151954", "brand:wikipedia": "en:Lidl", "check_date:opening_hours": "2023-04-26", "name": "Lidl", "opening_hours": "Mo-Sa 07:00-21:00", "shop": "supermarket", "wheelchair": "yes" }, "geom_type": "node" }, "geometry": { "type": "Point", "coordinates": [ 8.6645506, 49.3773316 ] } },
{ "type": "Feature", "properties": { "osm_id": "way/27930479", "name": "Lidl", "category": "supermarket", "tags": { "addr:city": "Heidelberg", "addr:country": "DE", "addr:housenumber": "21", "addr:postcode": "69121", "addr:street": "Fritz-Frey-Straße", "brand": "Lidl", "brand:wikidata": "Q151954", "building": "retail", "building:levels": "1", "check_date": "2023-08-20", "name": "Lidl", "opening_hours": "Mo-Sa 07:00-21:00", "payment:cash": "yes", "payment:coins": "yes", "payment:debit_cards": "yes", "payment:mastercard": "yes", "payment:visa": "yes", "roof:levels": "0", "shop": "supermarket", "toilets:wheelchair": "no", "wheelchair": "yes" }, "geom_type": "way" }, "geometry": { "type": "Point", "coordinates": [ 8.6794687, 49.4369962 ] } },
{ "type": "Feature", "properties": { "osm_id": "way/32573923", "name": "Lidl", "category": "supermarket", "tags": { "addr:city": "Heidelberg", "addr:country": "DE", "addr:housenumber": "98", "addr:postcode": "69126", "addr:street": "Heinrich-Fuchs-Straße", "brand": "Lidl", "brand:wikidata": "Q151954", "brand:wikipedia": "en:Lidl", "building": "retail", "building:levels": "1", "name": "Lidl", "opening_hours": "Mo-Sa 07:00-21:00; Su,PH off", "payment:cash": "yes", "payment:contactless": "yes", "payment:credit_cards": "yes", "payment:maestro": "yes", "roof:levels": "0", "roof:shape": "gabled", "shop": "supermarket", "wheelchair": "yes" }, "geom_type": "way" }, "geometry": { "type": "Point", "coordinates": [ 8.6783292, 49.3798697 ] } },
{ "type": "Feature", "properties": { "osm_id": "way/160208961", "name": "Lidl", "category": "supermarket", "tags": { "addr:city": "Heidelberg", "addr:country": "DE", "addr:housenumber": "47", "addr:postcode": "69120", "addr:street": "Brückenstraße", "brand": "Lidl", "brand:wikidata": "Q151954", "brand:wikipedia": "en:Lidl", "building": "apartments", "building:levels": "6", "check_date": "2023-10-03", "name": "Lidl", "opening_hours": "Mo-Sa 08:00-21:00; Su,PH off", "roof:levels": "0", "shop": "supermarket", "website": "https://www.lidl.de/filialen/heidelberg/neuenheim-brueckenstr-47.html", "wheelchair": "yes" }, "geom_type": "way" }, "geometry": { "type": "Point", "coordinates": [ 8.6917936, 49.416589499999986 ] } },
{ "type": "Feature", "properties": { "osm_id": "node/539837543", "name": "Nahkauf", "category": "supermarket", "tags": { "addr:city": "Heidelberg", "addr:country": "DE", "addr:housenumber": "72", "addr:postcode": "69115", "addr:street": "Rohrbacher Straße", "brand": "Nahkauf", "brand:wikidata": "Q57515238", "check_date": "2024-06-05", "name": "Nahkauf", "opening_hours": "Mo-Sa 08:00-21:00; Su,PH off", "operator": "Familie Lannert", "shop": "supermarket", "wheelchair": "limited" }, "geom_type": "node" }, "geometry": { "type": "Point", "coordinates": [ 8.6910526, 49.4015318 ] } },
{ "type": "Feature", "properties": { "osm_id": "node/2386262867", "name": "Nahkauf", "category": "supermarket", "tags": { "addr:city": "Heidelberg", "addr:housenumber": "5", "addr:postcode": "69126", "addr:street": "Forum", "brand": "Nahkauf", "brand:wikidata": "Q57515238", "name": "Nahkauf", "opening_hours": "Mo-Sa 08:00-20:00; Su,PH off", "shop": "supermarket", "website": "https://web.archive.org/web/20190621184048/http://www.aqb-online.de:80/", "wheelchair": "yes" }, "geom_type": "node" }, "geometry": { "type": "Point", "coordinates": [ 8.7046318, 49.3641182 ] } },
{ "type": "Feature", "properties": { "osm_id": "way/90065299", "name": "Nahkauf", "category": "supermarket", "tags": { "addr:city": "Heidelberg", "addr:country": "DE", "addr:housenumber": "26", "addr:postcode": "69124", "addr:street": "Breslauer Straße", "brand": "Nahkauf", "brand:wikidata": "Q57515238", "building": "retail", "building:levels": "1", "check_date:opening_hours": "2024-09-10", "name": "Nahkauf", "old_name": "Nah und gut", "opening_hours": "Mo-Sa 07:00-21:00; Su,PH off", "operator": "aqb-Arbeit u. Qualif. f. Menschen m. Beh", "outdoor_seating": "no", "roof:levels": "0", "roof:shape": "flat", "shop": "supermarket", "website": "https://nahkauf.de/maerkte/heidelberg-45611099-aqb-arbeit-u-qualif-f-menschen-m-beh-breslauer-strasse-26", "wheelchair": "yes" }, "geom_type": "way" }, "geometry": { "type": "Point", "coordinates": [ 8.6663753, 49.3839799 ] } },
{ "type": "Feature", "properties": { "osm_id": "node/2947036240", "name": "Netto Marken-Discount", "category": "supermarket", "tags": { "addr:city": "Heidelberg", "addr:country": "DE", "addr:housenumber": "175", "addr:postcode": "69123", "addr:street": "Mannheimer Straße", "air_conditioning": "yes", "brand": "Netto Marken-Discount", "brand:wikidata": "Q879858", "brand:wikipedia": "de:Netto Marken-Discount", "internet_access": "wlan", "internet_access:fee": "customers", "name": "Netto Marken-Discount", "opening_hours": "Mo-Sa 07:00-22:00", "operator": "Netto Marken-Discount", "organic": "yes", "payment:apple_pay": "yes", "payment:cash": "yes", "payment:coins": "yes", "payment:contactless": "yes", "payment:credit_cards": "yes", "phone": "+49 800 2000015", "shop": "supermarket", "website": "https://www.netto-online.de/filialen/Heidelberg-Wieblingen/Mannheimer-Str-177/3856/", "wheelchair": "yes" }, "geom_type": "node" }, "geometry": { "type": "Point", "coordinates": [ 8.6518513, 49.4188757 ] } },
{ "type": "Feature", "properties": { "osm_id": "way/93880877", "name": "Netto Marken-Discount", "category": "supermarket", "tags": { "addr:city": "Heidelberg", "addr:housenumber": "25", "addr:postcode": "69126", "addr:street": "Freiburger Straße", "brand": "Netto Marken-Discount", "brand:wikidata": "Q879858", "building": "retail", "name": "Netto Marken-Discount", "opening_hours": "Mo-Sa 07:00-21:00; Su,PH off", "shop": "supermarket", "website": "https://www.netto-online.de/filialen/heidelberg/freiburger-strasse-25/8169", "wheelchair": "yes" }, "geom_type": "way" }, "geometry": { "type": "Point", "coordinates": [ 8.680091, 49.3732044 ] } },
{ "type": "Feature", "properties": { "osm_id": "way/704445785", "name": "Netto Marken-Discount", "category": "supermarket", "tags": { "brand": "Netto Marken-Discount", "brand:wikidata": "Q879858", "brand:wikipedia": "de:Netto Marken-Discount", "building": "retail", "building:levels": "1", "check_date:opening_hours": "2024-08-25", "name": "Netto Marken-Discount", "nohousenumber": "yes", "opening_hours": "Mo-Sa 07:00-21:00; Su,PH off", "roof:levels": "0", "roof:shape": "flat", "shop": "supermarket", "website": "https://www.netto-online.de/filialen/Heidelberg/Kranichweg-49/3643/" }, "geom_type": "way" }, "geometry": { "type": "Point", "coordinates": [ 8.6434384, 49.3954328 ] } },
{ "type": "Feature", "properties": { "osm_id": "node/6578884848", "name": "Oriental Food", "category": "supermarket", "tags": { "addr:city": "Heidelberg", "addr:country": "DE", "addr:housenumber": "33", "addr:postcode": "69115", "addr:street": "Bergheimer Straße", "name": "Oriental Food", "opening_hours": "Mo-Sa 10:00-20:30; Su,PH off", "payment:cash": "yes", "shop": "supermarket", "wheelchair": "no" }, "geom_type": "node" }, "geometry": { "type": "Point", "coordinates": [ 8.6892793, 49.4084217 ] } },
{ "type": "Feature", "properties": { "osm_id": "node/309437261", "name": "PENNY", "category": "supermarket", "tags": { "brand": "PENNY", "brand:wikidata": "Q284688", "brand:wikipedia": "en:Penny (supermarket)", "name": "PENNY", "opening_hours": "Mo-Sa 08:00-22:00; Su,PH off", "shop": "supermarket", "wheelchair": "limited" }, "geom_type": "node" }, "geometry": { "type": "Point", "coordinates": [ 8.6912918, 49.4060575 ] } },
{ "type": "Feature", "properties": { "osm_id": "node/539837515", "name": "PENNY", "category": "supermarket", "tags": { "brand": "PENNY", "brand:wikidata": "Q284688", "brand:wikipedia": "en:Penny (supermarket)", "name": "PENNY", "opening_hours": "Mo-Sa 07:30-22:00; Su,PH off", "shop": "supermarket", "wheelchair": "yes" }, "geom_type": "node" }, "geometry": { "type": "Point", "coordinates": [ 8.6905386, 49.3794823 ] } },
{ "type": "Feature", "properties": { "osm_id": "node/5306133928", "name": "PENNY", "category": "supermarket", "tags": { "addr:city": "Heidelberg", "addr:housenumber": "40", "addr:postcode": "69121", "addr:street": "Dossenheimer Landstraße", "brand": "PENNY", "brand:wikidata": "Q284688", "brand:wikipedia": "en:Penny (supermarket)", "check_date:opening_hours": "2024-06-03", "name": "PENNY", "opening_hours": "Mo-Sa 07:30-22:00; Su,PH off", "operator": "Penny", "shop": "supermarket", "toilets:wheelchair": "no", "wheelchair": "yes" }, "geom_type": "node" }, "geometry": { "type": "Point", "coordinates": [ 8.6832239, 49.4287553 ] } },
{ "type": "Feature", "properties": { "osm_id": "node/1537481718", "name": "Penny", "category": "supermarket", "tags": { "brand": "Penny", "brand:wikidata": "Q284688", "brand:wikipedia": "en:Penny (supermarket)", "check_date": "2023-09-22", "name": "Penny", "opening_hours": "Mo-Sa 07:30-22:00; Su,PH off", "shop": "supermarket", "wheelchair": "yes" }, "geom_type": "node" }, "geometry": { "type": "Point", "coordinates": [ 8.6954751, 49.4089407 ] } },
{ "type": "Feature", "properties": { "osm_id": "node/1300170850", "name": "REWE", "category": "supermarket", "tags": { "closed:name": "Saturn", "closed:shop": "electronics", "level": "0", "name": "REWE", "opening_hours": "Mo-Sa 07:00-24:00; PH off", "shop": "supermarket", "start_date": "2024-12-12" }, "geom_type": "node" }, "geometry": { "type": "Point", "coordinates": [ 8.6935664, 49.4107889 ] } },
{ "type": "Feature", "properties": { "osm_id": "node/1384205671", "name": "REWE", "category": "supermarket", "tags": { "addr:city": "Heidelberg", "addr:country": "DE", "addr:housenumber": "68", "addr:postcode": "69120", "addr:street": "Ladenburger Straße", "brand": "REWE", "brand:wikidata": "Q16968817", "name": "REWE", "opening_hours": "Mo-Sa 07:00-22:00; Su,PH off", "shop": "supermarket", "wheelchair": "yes" }, "geom_type": "node" }, "geometry": { "type": "Point", "coordinates": [ 8.685653, 49.4141377 ] } },
{ "type": "Feature", "properties": { "osm_id": "node/6052328989", "name": "REWE", "category": "supermarket", "tags": { "addr:city": "Heidelberg", "addr:housenumber": "2", "addr:postcode": "69118", "addr:street": "Am Grünen Hag", "addr:suburb": "Schlierbach", "branch": "Müller", "brand": "REWE", "brand:wikidata": "Q16968817", "check_date": "2024-10-14", "check_date:opening_hours": "2024-04-14", "description": "Neueröffnung 13.11.2018", "name": "REWE", "opening_hours": "Mo-Sa 07:00-22:00; PH off", "operator": "REWE Müller oHG", "shop": "supermarket" }, "geom_type": "node" }, "geometry": { "type": "Point", "coordinates": [ 8.7686991, 49.4138841 ] } },
{ "type": "Feature", "properties": { "osm_id": "way/101778353", "name": "REWE", "category": "supermarket", "tags": { "addr:city": "Heidelberg", "addr:housenumber": "17", "addr:postcode": "69123", "addr:street": "Grenzhöfer Weg", "addr:suburb": "Wieblingen", "brand": "REWE", "brand:wikidata": "Q16968817", "brand:wikipedia": "de:Rewe", "building": "retail", "building:levels": "1", "contact:phone": "+49 6221 7963216", "name": "REWE", "opening_hours": "Mo-Sa 07:00-22:00; Su,PH off", "roof:levels": "0", "roof:shape": "skillion", "shop": "supermarket", "website": "https://www.rewe.de/", "wheelchair": "yes" }, "geom_type": "way" }, "geometry": { "type": "Point", "coordinates": [ 8.6423683, 49.424997 ] } },
{ "type": "Feature", "properties": { "osm_id": "way/256057214", "name": "REWE", "category": "supermarket", "tags": { "addr:city": "Heidelberg", "addr:housenumber": "20", "addr:postcode": "69126", "addr:street": "Felix-Wankel-Straße", "air_conditioning": "yes", "branch": "Center", "brand": "REWE", "brand:wikidata": "Q16968817", "building": "commercial", "building:levels": "1", "check_date:opening_hours": "2024-03-27", "currency:EUR": "yes", "internet_access": "wlan", "name": "REWE", "opening_hours": "Mo-Sa 07:00-24:00; Su,PH off", "organic": "yes", "payment:account_cards": "yes", "payment:american_express": "yes", "payment:cards": "yes", "payment:cash": "yes", "payment:coins": "yes", "payment:contactless": "yes", "payment:credit_cards": "yes", "payment:debit_cards": "yes", "payment:girocard": "yes", "payment:maestro": "yes", "payment:mastercard": "yes", "payment:mastercard_contactless": "yes", "payment:notes": "yes", "payment:visa": "yes", "phone": "+49 6221 3953963", "roof:shape": "flat", "shop": "supermarket", "source:geometry": "DigitalGlobe Standard Imagery", "toilets": "yes", "toilets:wheelchair": "yes", "website": "https://www.rewe.de/marktseite/heidelberg/831061/rewe-center-felix-wankel-strasse-20/", "wheelchair": "yes" }, "geom_type": "way" }, "geometry": { "type": "Point", "coordinates": [ 8.6783773, 49.3840652 ] } },
{ "type": "Feature", "properties": { "osm_id": "way/442398416", "name": "REWE", "category": "supermarket", "tags": { "addr:city": "Heidelberg", "addr:country": "DE", "addr:housenumber": "14", "addr:postcode": "69121", "addr:street": "Im Weiher", "brand": "REWE", "brand:wikidata": "Q16968817", "brand:wikipedia": "en:REWE", "building": "retail", "building:levels": "1", "check_date:opening_hours": "2023-06-14", "name": "REWE", "opening_hours": "Mo-Sa 07:00-24:00; Su,PH off", "shop": "supermarket", "source:geometry": "LGL, www.lgl-bw.de", "toilets:wheelchair": "no", "wheelchair": "yes" }, "geom_type": "way" }, "geometry": { "type": "Point", "coordinates": [ 8.6786723, 49.4366341 ] } },
{ "type": "Feature", "properties": { "osm_id": "way/456112467", "name": "REWE", "category": "supermarket", "tags": { "addr:city": "Heidelberg", "addr:housenumber": "49", "addr:postcode": "69120", "addr:street": "Berliner Straße", "brand": "REWE", "brand:wikidata": "Q16968817", "brand:wikipedia": "de:Rewe", "check_date:opening_hours": "2024-06-04", "drink:club-mate": "yes", "level": "0", "name": "REWE", "opening_hours": "Mo-Sa 07:00-24:00; Su,PH off", "operator": "REWE", "shop": "supermarket", "website": "https://www.rewe.de/marktseite/heidelberg/841039/rewe-markt-berliner-str-41-49/", "wheelchair": "yes" }, "geom_type": "way" }, "geometry": { "type": "Point", "coordinates": [ 8.6757249, 49.418846 ] } },
{ "type": "Feature", "properties": { "osm_id": "node/281825576", "name": "REWE City", "category": "supermarket", "tags": { "brand": "REWE", "brand:wikidata": "Q16968817", "check_date:opening_hours": "2024-07-01", "name": "REWE City", "opening_hours": "Mo-Sa 07:00-22:00; Su,PH off", "shop": "supermarket", "website": "https://www.rewe.de/", "wheelchair": "yes" }, "geom_type": "node" }, "geometry": { "type": "Point", "coordinates": [ 8.6803337, 49.4212804 ] } },
{ "type": "Feature", "properties": { "osm_id": "node/1266040544", "name": "REWE City", "category": "supermarket", "tags": { "addr:city": "Heidelberg", "addr:country": "DE", "addr:housenumber": "6", "addr:postcode": "69115", "addr:street": "Kurfürsten-Anlage", "brand": "REWE", "brand:wikidata": "Q16968817", "brand:wikipedia": "en:REWE", "level": "0", "name": "REWE City", "opening_hours": "Mo-Sa 07:00-24:00; Su,PH off", "phone": "+49 6221 84021", "shop": "supermarket", "toilets": "no", "website": "https://www.rewe.de/marktseite/heidelberg-weststadt/840335/rewe-markt-kurfuerstenanlage-6/", "wheelchair": "yes" }, "geom_type": "node" }, "geometry": { "type": "Point", "coordinates": [ 8.6917185, 49.407495099999984 ] } },
{ "type": "Feature", "properties": { "osm_id": "way/956539450", "name": "Rewe", "category": "supermarket", "tags": { "addr:city": "Heidelberg", "addr:country": "DE", "addr:housenumber": "3", "addr:postcode": "69124", "addr:street": "Im Franzosengewann", "brand": "REWE", "brand:wikidata": "Q16968817", "brand:wikipedia": "de:Rewe", "building": "supermarket", "check_date": "2023-03-31", "name": "Rewe", "opening_hours": "Mo-Sa 07:00-22:00; Su,PH off", "shop": "supermarket" }, "geom_type": "way" }, "geometry": { "type": "Point", "coordinates": [ 8.6752763, 49.3849769 ] } },
{ "type": "Feature", "properties": { "osm_id": "node/2817447596", "name": "Scheck-In Center", "category": "supermarket", "tags": { "addr:city": "Heidelberg", "addr:housenumber": "21-23", "addr:postcode": "69115", "addr:street": "Kurfürsten-Anlage", "brand": "EDEKA", "brand:wikidata": "Q701755", "check_date:opening_hours": "2024-05-04", "diet:kosher": "no", "name": "Scheck-In Center", "opening_hours": "Mo-Sa 07:00-22:00; Su,PH off", "operator": "Scheck-In", "shop": "supermarket", "toilets:wheelchair": "yes", "website": "https://www.scheck-in-center.de/html/content/heidelberg.html", "wheelchair": "yes" }, "geom_type": "node" }, "geometry": { "type": "Point", "coordinates": [ 8.6868261, 49.4058576 ] } },
{ "type": "Feature", "properties": { "osm_id": "node/2144473976", "name": "Serpa Markt", "category": "supermarket", "tags": { "addr:city": "Heidelberg", "addr:country": "DE", "addr:housenumber": "21", "addr:postcode": "69115", "addr:street": "Eppelheimer Straße", "diet:halal": "only", "name": "Serpa Markt", "opening_hours": "Mo-Sa 08:00-20:00", "payment:credit_cards": "no", "payment:debit_cards": "yes", "shop": "supermarket", "wheelchair": "limited" }, "geom_type": "node" }, "geometry": { "type": "Point", "coordinates": [ 8.6605012, 49.4056236 ] } },
{ "type": "Feature", "properties": { "osm_id": "node/6992034785", "name": "Shan", "category": "supermarket", "tags": { "check_date:opening_hours": "2023-11-14", "name": "Shan", "opening_hours": "Mo-Sa 10:00-20:00; Su,PH off", "payment:credit_cards": "yes", "payment:debit_cards": "yes", "shop": "supermarket", "wheelchair": "yes" }, "geom_type": "node" }, "geometry": { "type": "Point", "coordinates": [ 8.6750316, 49.405861 ] } },
{ "type": "Feature", "properties": { "osm_id": "node/1539741096", "name": "tegut", "category": "supermarket", "tags": { "addr:city": "Heidelberg", "addr:housenumber": "110", "addr:postcode": "69117", "addr:street": "Hauptstraße", "brand": "tegut", "brand:wikidata": "Q1547993", "brand:wikipedia": "en:Tegut", "check_date": "2024-06-25", "level": "0", "name": "tegut", "opening_hours": "Mo-Sa 07:00-22:00; Su,PH off", "organic": "yes", "shop": "supermarket", "start_date": "2019-09-19", "wheelchair": "yes" }, "geom_type": "node" }, "geometry": { "type": "Point", "coordinates": [ 8.7040113, 49.4113305 ] } },
{ "type": "Feature", "properties": { "osm_id": "node/7003882946", "name": "tegut", "category": "supermarket", "tags": { "addr:city": "Heidelberg", "addr:housenumber": "29", "addr:postcode": "69126", "addr:street": "Rheinstraße", "brand": "tegut", "brand:wikidata": "Q1547993", "brand:wikipedia": "de:Tegut", "check_date:opening_hours": "2024-11-18", "level": "0", "name": "tegut", "opening_hours": "Mo-Sa 07:00-22:00; Su,PH off", "organic": "yes", "shop": "supermarket", "start_date": "27.11.2019", "toilets:wheelchair": "no", "wheelchair": "yes" }, "geom_type": "node" }, "geometry": { "type": "Point", "coordinates": [ 8.6865495, 49.3898362 ] } }
]
}
